<?xml version="1.0" encoding="UTF-8"?>
<kml xmlns="http://www.opengis.net/kml/2.2" xmlns:gx="http://www.google.com/kml/ext/2.2" xmlns:kml="http://www.opengis.net/kml/2.2" xmlns:atom="http://www.w3.org/2005/Atom">
<Document>
	<name>Gəncə VSGL.kml</name>
	<StyleMap id="m_ylw-pushpin">
		<Pair>
			<key>normal</key>
			<styleUrl>#s_ylw-pushpin</styleUrl>
		</Pair>
		<Pair>
			<key>highlight</key>
			<styleUrl>#s_ylw-pushpin_hl</styleUrl>
		</Pair>
	</StyleMap>
	<Style id="s_ylw-pushpin">
		<IconStyle>
			<scale>1.1</scale>
			<Icon>
				<href>http://maps.google.com/mapfiles/kml/pushpin/ylw-pushpin.png</href>
			</Icon>
			<hotSpot x="20" y="2" xunits="pixels" yunits="pixels"/>
		</IconStyle>
	</Style>
	<Style id="s_ylw-pushpin_hl">
		<IconStyle>
			<scale>1.3</scale>
			<Icon>
				<href>http://maps.google.com/mapfiles/kml/pushpin/ylw-pushpin.png</href>
			</Icon>
			<hotSpot x="20" y="2" xunits="pixels" yunits="pixels"/>
		</IconStyle>
	</Style>
	<Folder>
		<name>Gəncə VSGL</name>
		<open>1</open>
		<Folder>
			<name>TŞ</name>
			<Placemark>
				<name>N.Nərimanov prospekti Çingiz İldırım küçəsi ilə kəsişmə</name>
				<LookAt>
					<longitude>46.34849299343171</longitude>
					<latitude>40.652823007263</latitude>
					<altitude>0</altitude>
					<heading>-4.279102365667607e-09</heading>
					<tilt>0</tilt>
					<range>1000.000064704132</range>
					<gx:altitudeMode>relativeToSeaFloor</gx:altitudeMode>
				</LookAt>
				<styleUrl>#m_ylw-pushpin</styleUrl>
				<Point>
					<gx:drawOrder>1</gx:drawOrder>
					<coordinates>46.34849299343172,40.652823007263,0</coordinates>
				</Point>
			</Placemark>
			<Placemark>
				<name>Gəncə-Göygöl yolu, Kəlbəcər xəstəxanasının qarşısı</name>
				<LookAt>
					<longitude>46.33714197985559</longitude>
					<latitude>40.63722799510489</latitude>
					<altitude>0</altitude>
					<heading>-1.311941911669396e-08</heading>
					<tilt>0</tilt>
					<range>999.9998889219821</range>
					<gx:altitudeMode>relativeToSeaFloor</gx:altitudeMode>
				</LookAt>
				<styleUrl>#m_ylw-pushpin</styleUrl>
				<Point>
					<gx:drawOrder>1</gx:drawOrder>
					<coordinates>46.3371419798556,40.63722799510489,0</coordinates>
				</Point>
			</Placemark>
			<Placemark>
				<name>Gülüstan qəsəbəsi Aydın Nəbiyev küçəsi Qərargah adlanan ərazi</name>
				<LookAt>
					<longitude>46.34258799812571</longitude>
					<latitude>40.62876100071718</latitude>
					<altitude>0</altitude>
					<heading>-1.220464706253951e-09</heading>
					<tilt>0</tilt>
					<range>999.9999847293855</range>
					<gx:altitudeMode>relativeToSeaFloor</gx:altitudeMode>
				</LookAt>
				<styleUrl>#m_ylw-pushpin</styleUrl>
				<Point>
					<gx:drawOrder>1</gx:drawOrder>
					<coordinates>46.34258799812571,40.62876100071718,0</coordinates>
				</Point>
			</Placemark>
			<Placemark>
				<name>Gülüstan qəsəbəsi, Ehsan bulağının qarşısı</name>
				<LookAt>
					<longitude>46.34565699258334</longitude>
					<latitude>40.63403000509427</latitude>
					<altitude>0</altitude>
					<heading>-4.829926728176868e-09</heading>
					<tilt>0</tilt>
					<range>1000.000037634115</range>
					<gx:altitudeMode>relativeToSeaFloor</gx:altitudeMode>
				</LookAt>
				<styleUrl>#m_ylw-pushpin</styleUrl>
				<Point>
					<gx:drawOrder>1</gx:drawOrder>
					<coordinates>46.34565699258334,40.63403000509427,0</coordinates>
				</Point>
			</Placemark>
			<Placemark>
				<name>Gülüstan qəsəbəsi, 69 saylı məktəbin yaxınlığı</name>
				<LookAt>
					<longitude>46.35282400230097</longitude>
					<latitude>40.63026400734882</latitude>
					<altitude>0</altitude>
					<heading>1.498333866000011e-09</heading>
					<tilt>0</tilt>
					<range>999.9999311110457</range>
					<gx:altitudeMode>relativeToSeaFloor</gx:altitudeMode>
				</LookAt>
				<styleUrl>#m_ylw-pushpin</styleUrl>
				<Point>
					<gx:drawOrder>1</gx:drawOrder>
					<coordinates>46.35282400230098,40.63026400734883,0</coordinates>
				</Point>
			</Placemark>
			<Placemark>
				<name>Gülüstan qəsəbəsi, Tofiq Bağırov küçəsi Üç qardaş restoranının yaxınlığı</name>
				<LookAt>
					<longitude>46.34480601638977</longitude>
					<latitude>40.63856800146097</latitude>
					<altitude>0</altitude>
					<heading>1.067440905252974e-08</heading>
					<tilt>0</tilt>
					<range>1000.000002216302</range>
					<gx:altitudeMode>relativeToSeaFloor</gx:altitudeMode>
				</LookAt>
				<styleUrl>#m_ylw-pushpin</styleUrl>
				<Point>
					<gx:drawOrder>1</gx:drawOrder>
					<coordinates>46.34480601638976,40.63856800146097,0</coordinates>
				</Point>
			</Placemark>
			<Placemark>
				<name>Gülüstan qəsəbəsi, Tofiq Bağırov küçəsi 3 yol Avtozavod yolu</name>
				<LookAt>
					<longitude>46.35545098494298</longitude>
					<latitude>40.63637998243885</latitude>
					<altitude>0</altitude>
					<heading>-9.805980860638891e-09</heading>
					<tilt>0</tilt>
					<range>999.9999739502346</range>
					<gx:altitudeMode>relativeToSeaFloor</gx:altitudeMode>
				</LookAt>
				<styleUrl>#m_ylw-pushpin</styleUrl>
				<Point>
					<gx:drawOrder>1</gx:drawOrder>
					<coordinates>46.35545098494298,40.63637998243885,0</coordinates>
				</Point>
			</Placemark>
			<Placemark>
				<name>Gülüstan qəsəbəsi, Molla Cəlilli küçəsi 3 yol</name>
				<LookAt>
					<longitude>46.36149199932486</longitude>
					<latitude>40.64236499165912</latitude>
					<altitude>0</altitude>
					<heading>-4.397244069310568e-10</heading>
					<tilt>0</tilt>
					<range>999.9999514948069</range>
					<gx:altitudeMode>relativeToSeaFloor</gx:altitudeMode>
				</LookAt>
				<styleUrl>#m_ylw-pushpin</styleUrl>
				<Point>
					<gx:drawOrder>1</gx:drawOrder>
					<coordinates>46.36149199932486,40.64236499165913,0</coordinates>
				</Point>
			</Placemark>
			<Placemark>
				<name>Avtozavod qəsəbəsi, Cumhuriyyət küçəsi Meydan</name>
				<LookAt>
					<longitude>46.36780599613</longitude>
					<latitude>40.64330400081226</latitude>
					<altitude>0</altitude>
					<heading>-2.520707265583051e-09</heading>
					<tilt>0</tilt>
					<range>999.9999867498148</range>
					<gx:altitudeMode>relativeToSeaFloor</gx:altitudeMode>
				</LookAt>
				<styleUrl>#m_ylw-pushpin</styleUrl>
				<Point>
					<gx:drawOrder>1</gx:drawOrder>
					<coordinates>46.36780599613,40.64330400081226,0</coordinates>
				</Point>
			</Placemark>
			<Placemark>
				<name>Avtozavod qəsəbəsi, Əli Rəfibəyli və Saleh Musayev küçələrinin kəsişməsi</name>
				<LookAt>
					<longitude>46.38363301604947</longitude>
					<latitude>40.65647800092519</latitude>
					<altitude>0</altitude>
					<heading>1.045658876516971e-08</heading>
					<tilt>0</tilt>
					<range>1000.000044415602</range>
					<gx:altitudeMode>relativeToSeaFloor</gx:altitudeMode>
				</LookAt>
				<styleUrl>#m_ylw-pushpin</styleUrl>
				<Point>
					<gx:drawOrder>1</gx:drawOrder>
					<coordinates>46.38363301604947,40.6564780009252,0</coordinates>
				</Point>
			</Placemark>
			<Placemark>
				<name>Avtozavod qəsəbəsi, 4 yol Oba marketin yaxınlığı (Komandirin küçəsi)</name>
				<LookAt>
					<longitude>46.39425000806037</longitude>
					<latitude>40.67233300410862</latitude>
					<altitude>0</altitude>
					<heading>5.253188584076668e-09</heading>
					<tilt>0</tilt>
					<range>1000.000003323533</range>
					<gx:altitudeMode>relativeToSeaFloor</gx:altitudeMode>
				</LookAt>
				<styleUrl>#m_ylw-pushpin</styleUrl>
				<Point>
					<gx:drawOrder>1</gx:drawOrder>
					<coordinates>46.39425000806038,40.67233300410862,0</coordinates>
				</Point>
			</Placemark>
			<Placemark>
				<name>Avtozavod qəsəbəsi, Vaqifin artizanının qarşısı</name>
				<LookAt>
					<longitude>46.38755599460395</longitude>
					<latitude>40.66199999779884</latitude>
					<altitude>0</altitude>
					<heading>-3.51606503370174e-09</heading>
					<tilt>0</tilt>
					<range>999.9999934748306</range>
					<gx:altitudeMode>relativeToSeaFloor</gx:altitudeMode>
				</LookAt>
				<styleUrl>#m_ylw-pushpin</styleUrl>
				<Point>
					<gx:drawOrder>1</gx:drawOrder>
					<coordinates>46.38755599460395,40.66199999779884,0</coordinates>
				</Point>
			</Placemark>
			<Placemark>
				<name>Avtozavod yolu, Süleyman Rəhimov küçəsi Oba marketin yaxınlığı 4 yol</name>
				<LookAt>
					<longitude>46.37945000684302</longitude>
					<latitude>40.66410300926731</latitude>
					<altitude>0</altitude>
					<heading>4.459045427326088e-09</heading>
					<tilt>0</tilt>
					<range>999.9999948188699</range>
					<gx:altitudeMode>relativeToSeaFloor</gx:altitudeMode>
				</LookAt>
				<styleUrl>#m_ylw-pushpin</styleUrl>
				<Point>
					<gx:drawOrder>1</gx:drawOrder>
					<coordinates>46.37945000684301,40.66410300926731,0</coordinates>
				</Point>
			</Placemark>
			<Placemark>
				<name>İstanbul küçəsi, 8 saylı marşrut avtobusunun son dayanacağı</name>
				<LookAt>
					<longitude>46.37152798359393</longitude>
					<latitude>40.65891499029836</latitude>
					<altitude>0</altitude>
					<heading>-1.068944989561838e-08</heading>
					<tilt>0</tilt>
					<range>999.999919723767</range>
					<gx:altitudeMode>relativeToSeaFloor</gx:altitudeMode>
				</LookAt>
				<styleUrl>#m_ylw-pushpin</styleUrl>
				<Point>
					<gx:drawOrder>1</gx:drawOrder>
					<coordinates>46.37152798359394,40.65891499029836,0</coordinates>
				</Point>
			</Placemark>
			<Placemark>
				<name>Əbülülla Gəncəvi və Abbas Abbaszadə küçələrinin kəsişməsi</name>
				<LookAt>
					<longitude>46.37086100140628</longitude>
					<latitude>40.66547199668598</latitude>
					<altitude>0</altitude>
					<heading>9.163750537139056e-10</heading>
					<tilt>0</tilt>
					<range>1000.000018421829</range>
					<gx:altitudeMode>relativeToSeaFloor</gx:altitudeMode>
				</LookAt>
				<styleUrl>#m_ylw-pushpin</styleUrl>
				<Point>
					<gx:drawOrder>1</gx:drawOrder>
					<coordinates>46.37086100140628,40.66547199668598,0</coordinates>
				</Point>
			</Placemark>
			<Placemark>
				<name>38 saylı hərbi şəhərcik</name>
				<LookAt>
					<longitude>46.38844400808456</longitude>
					<latitude>40.67747199574671</latitude>
					<altitude>0</altitude>
					<heading>5.269539815694071e-09</heading>
					<tilt>0</tilt>
					<range>999.9999973015441</range>
					<gx:altitudeMode>relativeToSeaFloor</gx:altitudeMode>
				</LookAt>
				<styleUrl>#m_ylw-pushpin</styleUrl>
				<Point>
					<gx:drawOrder>1</gx:drawOrder>
					<coordinates>46.38844400808456,40.67747199574671,0</coordinates>
				</Point>
			</Placemark>
			<Placemark>
				<name>Natavan qəsəbəsi, 4 yol Mərkəzi Artizanın qarşısı</name>
				<LookAt>
					<longitude>46.3954720112858</longitude>
					<latitude>40.71697300233672</latitude>
					<altitude>0</altitude>
					<heading>7.361944046207207e-09</heading>
					<tilt>0</tilt>
					<range>1000.000042927592</range>
					<gx:altitudeMode>relativeToSeaFloor</gx:altitudeMode>
				</LookAt>
				<styleUrl>#m_ylw-pushpin</styleUrl>
				<Point>
					<gx:drawOrder>1</gx:drawOrder>
					<coordinates>46.3954720112858,40.71697300233672,0</coordinates>
				</Point>
			</Placemark>
			<Placemark>
				<name>Natavan  qəsəbəsi, 252 saylı EATS qarşısı</name>
				<LookAt>
					<longitude>46.39988902427013</longitude>
					<latitude>40.72066700586762</latitude>
					<altitude>0</altitude>
					<heading>1.583313198201226e-08</heading>
					<tilt>0</tilt>
					<range>1000.000031820006</range>
					<gx:altitudeMode>relativeToSeaFloor</gx:altitudeMode>
				</LookAt>
				<styleUrl>#m_ylw-pushpin</styleUrl>
				<Point>
					<gx:drawOrder>1</gx:drawOrder>
					<coordinates>46.39988902427013,40.72066700586762,0</coordinates>
				</Point>
			</Placemark>
			<Placemark>
				<name>İmamzadə yolu, Depo qəsəbəsi dəmiryol keçidinin yaxınlığı</name>
				<LookAt>
					<longitude>46.3891389991444</longitude>
					<latitude>40.71299999504554</latitude>
					<altitude>0</altitude>
					<heading>-5.580887494017219e-10</heading>
					<tilt>0</tilt>
					<range>999.9999946030794</range>
					<gx:altitudeMode>relativeToSeaFloor</gx:altitudeMode>
				</LookAt>
				<styleUrl>#m_ylw-pushpin</styleUrl>
				<Point>
					<gx:drawOrder>1</gx:drawOrder>
					<coordinates>46.3891389991444,40.71299999504554,0</coordinates>
				</Point>
			</Placemark>
			<Placemark>
				<name>İmamzadə yolu, 4 yol 5114 poçt şöbəsinin qarşısı</name>
				<LookAt>
					<longitude>46.40616699393738</longitude>
					<latitude>40.72066700761083</latitude>
					<altitude>0</altitude>
					<heading>-3.955108801930963e-09</heading>
					<tilt>0</tilt>
					<range>999.9999718123258</range>
					<gx:altitudeMode>relativeToSeaFloor</gx:altitudeMode>
				</LookAt>
				<styleUrl>#m_ylw-pushpin</styleUrl>
				<Point>
					<gx:drawOrder>1</gx:drawOrder>
					<coordinates>46.40616699393738,40.72066700761083,0</coordinates>
				</Point>
			</Placemark>
			<Placemark>
				<name>İmamazadə yolu Samux dairəsi</name>
				<LookAt>
					<longitude>46.39922198173961</longitude>
					<latitude>40.72494401784815</latitude>
					<altitude>0</altitude>
					<heading>-1.191361040641218e-08</heading>
					<tilt>0</tilt>
					<range>1000.000156680021</range>
					<gx:altitudeMode>relativeToSeaFloor</gx:altitudeMode>
				</LookAt>
				<styleUrl>#m_ylw-pushpin</styleUrl>
				<Point>
					<gx:drawOrder>1</gx:drawOrder>
					<coordinates>46.39922198173962,40.72494401784815,0</coordinates>
				</Point>
			</Placemark>
			<Placemark>
				<name>Azərbaycan və Həmid Sulatnov küçələrinin kəsişməsi</name>
				<LookAt>
					<longitude>46.36725000958401</longitude>
					<latitude>40.7156670056409</latitude>
					<altitude>0</altitude>
					<heading>6.251711004103413e-09</heading>
					<tilt>0</tilt>
					<range>1000.000010367932</range>
					<gx:altitudeMode>relativeToSeaFloor</gx:altitudeMode>
				</LookAt>
				<styleUrl>#m_ylw-pushpin</styleUrl>
				<Point>
					<gx:drawOrder>1</gx:drawOrder>
					<coordinates>46.36725000958402,40.7156670056409,0</coordinates>
				</Point>
			</Placemark>
			<Placemark>
				<name>Poçt qəsəbəsi, meydan 7 saylı marşrut avtobusunun son dayanacağı</name>
				<LookAt>
					<longitude>46.34863901267745</longitude>
					<latitude>40.72352798679564</latitude>
					<altitude>0</altitude>
					<heading>8.270892504739889e-09</heading>
					<tilt>0</tilt>
					<range>999.9999971340926</range>
					<gx:altitudeMode>relativeToSeaFloor</gx:altitudeMode>
				</LookAt>
				<styleUrl>#m_ylw-pushpin</styleUrl>
				<Point>
					<gx:drawOrder>1</gx:drawOrder>
					<coordinates>46.34863901267745,40.72352798679563,0</coordinates>
				</Point>
			</Placemark>
			<Placemark>
				<name>Poçt qəsəbəsi, Abbas Səhhət küçəsi 3 yol</name>
				<LookAt>
					<longitude>46.35566702891876</longitude>
					<latitude>40.71505601543858</latitude>
					<altitude>0</altitude>
					<heading>1.886359628805751e-08</heading>
					<tilt>0</tilt>
					<range>999.9999911148093</range>
					<gx:altitudeMode>relativeToSeaFloor</gx:altitudeMode>
				</LookAt>
				<styleUrl>#m_ylw-pushpin</styleUrl>
				<Point>
					<gx:drawOrder>1</gx:drawOrder>
					<coordinates>46.35566702891877,40.71505601543858,0</coordinates>
				</Point>
			</Placemark>
			<Placemark>
				<name>Sevinc qəsəbəsi, dəmir yol keçidinin yaxınlığı</name>
				<LookAt>
					<longitude>46.33841700373679</longitude>
					<latitude>40.71138898477921</latitude>
					<altitude>0</altitude>
					<heading>2.43731948294444e-09</heading>
					<tilt>0</tilt>
					<range>999.9999249645067</range>
					<gx:altitudeMode>relativeToSeaFloor</gx:altitudeMode>
				</LookAt>
				<styleUrl>#m_ylw-pushpin</styleUrl>
				<Point>
					<gx:drawOrder>1</gx:drawOrder>
					<coordinates>46.33841700373679,40.71138898477921,0</coordinates>
				</Point>
			</Placemark>
			<Placemark>
				<name>Sevinc qəsəbəsi, Zaur Hüseynov və Arzu Nəbiyev küçələrinin kəsişməsi</name>
				<LookAt>
					<longitude>46.31980601300429</longitude>
					<latitude>40.71138900260297</latitude>
					<altitude>0</altitude>
					<heading>8.482020905050121e-09</heading>
					<tilt>0</tilt>
					<range>1000.000041794518</range>
					<gx:altitudeMode>relativeToSeaFloor</gx:altitudeMode>
				</LookAt>
				<styleUrl>#m_ylw-pushpin</styleUrl>
				<Point>
					<gx:drawOrder>1</gx:drawOrder>
					<coordinates>46.31980601300429,40.71138900260297,0</coordinates>
				</Point>
			</Placemark>
			<Placemark>
				<name>Sevinc qəsəbəsi, 19 və 26 cı küçələrin kəsişməsi</name>
				<LookAt>
					<longitude>46.32794398952144</longitude>
					<latitude>40.70888902048404</latitude>
					<altitude>0</altitude>
					<heading>-6.834305927325814e-09</heading>
					<tilt>0</tilt>
					<range>1000.000035079499</range>
					<gx:altitudeMode>relativeToSeaFloor</gx:altitudeMode>
				</LookAt>
				<styleUrl>#m_ylw-pushpin</styleUrl>
				<Point>
					<gx:drawOrder>1</gx:drawOrder>
					<coordinates>46.32794398952143,40.70888902048404,0</coordinates>
				</Point>
			</Placemark>
			<Placemark>
				<name>Sevinc qəsəbəsi,5 Karamel zavodu yaxınlığı 3 yol</name>
				<LookAt>
					<longitude>46.32963898525851</longitude>
					<latitude>40.70072199610934</latitude>
					<altitude>0</altitude>
					<heading>-9.613077038653448e-09</heading>
					<tilt>0</tilt>
					<range>999.9999684863981</range>
					<gx:altitudeMode>relativeToSeaFloor</gx:altitudeMode>
				</LookAt>
				<styleUrl>#m_ylw-pushpin</styleUrl>
				<Point>
					<gx:drawOrder>1</gx:drawOrder>
					<coordinates>46.3296389852585,40.70072199610934,0</coordinates>
				</Point>
			</Placemark>
			<Placemark>
				<name>28 May küçəsi, PPX taboru inzibati  binasının qarşısı</name>
				<LookAt>
					<longitude>46.31888901261122</longitude>
					<latitude>40.670693995009</latitude>
					<altitude>0</altitude>
					<heading>8.21884272737774e-09</heading>
					<tilt>0</tilt>
					<range>999.9999623474386</range>
					<gx:altitudeMode>relativeToSeaFloor</gx:altitudeMode>
				</LookAt>
				<styleUrl>#m_ylw-pushpin</styleUrl>
				<Point>
					<gx:drawOrder>1</gx:drawOrder>
					<coordinates>46.31888901261123,40.670693995009,0</coordinates>
				</Point>
			</Placemark>
			<Placemark>
				<name>28 May və Ulduz Rəfili küçələrinin kəsişməsi</name>
				<LookAt>
					<longitude>46.32638900901152</longitude>
					<latitude>40.67327800349225</latitude>
					<altitude>0</altitude>
					<heading>5.873196372017121e-09</heading>
					<tilt>0</tilt>
					<range>1000.000026617039</range>
					<gx:altitudeMode>relativeToSeaFloor</gx:altitudeMode>
				</LookAt>
				<styleUrl>#m_ylw-pushpin</styleUrl>
				<Point>
					<gx:drawOrder>1</gx:drawOrder>
					<coordinates>46.32638900901151,40.67327800349226,0</coordinates>
				</Point>
			</Placemark>
			<Placemark>
				<name>Mehmandarov küçəsi Bizim çörəkçinin qarşısı</name>
				<LookAt>
					<longitude>46.33338899659753</longitude>
					<latitude>40.68119400150879</latitude>
					<altitude>0</altitude>
					<heading>-2.217915279353043e-09</heading>
					<tilt>0</tilt>
					<range>999.9999809682419</range>
					<gx:altitudeMode>relativeToSeaFloor</gx:altitudeMode>
				</LookAt>
				<styleUrl>#m_ylw-pushpin</styleUrl>
				<Point>
					<gx:drawOrder>1</gx:drawOrder>
					<coordinates>46.33338899659753,40.68119400150879,0</coordinates>
				</Point>
			</Placemark>
			<Placemark>
				<name>Səməd Vurğun və Muxtar Hacıyev küçələrinin kəsişməsi</name>
				<LookAt>
					<longitude>46.34741699358997</longitude>
					<latitude>40.69005600168088</latitude>
					<altitude>0</altitude>
					<heading>-4.179143893138572e-09</heading>
					<tilt>0</tilt>
					<range>1000.000018811118</range>
					<gx:altitudeMode>relativeToSeaFloor</gx:altitudeMode>
				</LookAt>
				<styleUrl>#m_ylw-pushpin</styleUrl>
				<Point>
					<gx:drawOrder>1</gx:drawOrder>
					<coordinates>46.34741699358997,40.69005600168089,0</coordinates>
				</Point>
			</Placemark>
			<Placemark>
				<name>N.Nərimanov prospekti Göz xəstəxanasının yaxınlığı</name>
				<LookAt>
					<longitude>46.35572708597595</longitude>
					<latitude>40.66088886192678</latitude>
					<altitude>0</altitude>
					<heading>3.272332767351827e-09</heading>
					<tilt>0</tilt>
					<range>1000.000021589051</range>
					<gx:altitudeMode>relativeToSeaFloor</gx:altitudeMode>
				</LookAt>
				<styleUrl>#m_ylw-pushpin</styleUrl>
				<Point>
					<gx:drawOrder>1</gx:drawOrder>
					<coordinates>46.35572708597595,40.66088886192678,0</coordinates>
				</Point>
			</Placemark>
			<Placemark>
				<name>Nizami küçəsi, Körpünün yaxınlığı</name>
				<LookAt>
					<longitude>46.36819400588983</longitude>
					<latitude>40.679611017317</latitude>
					<altitude>0</altitude>
					<heading>3.839148958799486e-09</heading>
					<tilt>0</tilt>
					<range>1000.000025698509</range>
					<gx:altitudeMode>relativeToSeaFloor</gx:altitudeMode>
				</LookAt>
				<styleUrl>#m_ylw-pushpin</styleUrl>
				<Point>
					<gx:drawOrder>1</gx:drawOrder>
					<coordinates>46.36819400588982,40.679611017317,0</coordinates>
				</Point>
			</Placemark>
			<Placemark>
				<name>Adilxan Ziyadxan küçəsi, MSY qarşısı</name>
				<LookAt>
					<longitude>46.36752798824491</longitude>
					<latitude>40.6931669952325</latitude>
					<altitude>0</altitude>
					<heading>-7.664437060297154e-09</heading>
					<tilt>0</tilt>
					<range>999.9999842314219</range>
					<gx:altitudeMode>relativeToSeaFloor</gx:altitudeMode>
				</LookAt>
				<styleUrl>#m_ylw-pushpin</styleUrl>
				<Point>
					<gx:drawOrder>1</gx:drawOrder>
					<coordinates>46.36752798824491,40.6931669952325,0</coordinates>
				</Point>
			</Placemark>
			<Placemark>
				<name>Memorial kompleksi parkı 1</name>
				<LookAt>
					<longitude>46.36769399320196</longitude>
					<latitude>40.70127799619996</latitude>
					<altitude>0</altitude>
					<heading>-4.433076198351939e-09</heading>
					<tilt>0</tilt>
					<range>999.9999620479616</range>
					<gx:altitudeMode>relativeToSeaFloor</gx:altitudeMode>
				</LookAt>
				<styleUrl>#m_ylw-pushpin</styleUrl>
				<Point>
					<gx:drawOrder>1</gx:drawOrder>
					<coordinates>46.36769399320197,40.70127799619996,0</coordinates>
				</Point>
			</Placemark>
			<Placemark>
				<name>Memorial kompleksi parkı 2</name>
				<LookAt>
					<longitude>46.3675280039074</longitude>
					<latitude>40.70027799980753</latitude>
					<altitude>0</altitude>
					<heading>2.547993244195327e-09</heading>
					<tilt>0</tilt>
					<range>1000.000029790677</range>
					<gx:altitudeMode>relativeToSeaFloor</gx:altitudeMode>
				</LookAt>
				<styleUrl>#m_ylw-pushpin</styleUrl>
				<Point>
					<gx:drawOrder>1</gx:drawOrder>
					<coordinates>46.3675280039074,40.70027799980752,0</coordinates>
				</Point>
			</Placemark>
			<Placemark>
				<name>Gəncə Mərkəzi Grand Qafqaz Bazarı</name>
				<LookAt>
					<longitude>46.37700000492437</longitude>
					<latitude>40.69277799475427</latitude>
					<altitude>0</altitude>
					<heading>3.210699978734428e-09</heading>
					<tilt>0</tilt>
					<range>999.9999945546142</range>
					<gx:altitudeMode>relativeToSeaFloor</gx:altitudeMode>
				</LookAt>
				<styleUrl>#m_ylw-pushpin</styleUrl>
				<Point>
					<gx:drawOrder>1</gx:drawOrder>
					<coordinates>46.37700000492437,40.69277799475427,0</coordinates>
				</Point>
			</Placemark>
			<Placemark>
				<name>İmamzadə ziyarətgahı Samux istiqamətindən giriş-çıxış qapısı</name>
				<LookAt>
					<longitude>46.42597199536453</longitude>
					<latitude>40.71591699649057</latitude>
					<altitude>0</altitude>
					<heading>-3.023746974558002e-09</heading>
					<tilt>0</tilt>
					<range>999.9999946944529</range>
					<gx:altitudeMode>relativeToSeaFloor</gx:altitudeMode>
				</LookAt>
				<styleUrl>#m_ylw-pushpin</styleUrl>
				<Point>
					<gx:drawOrder>1</gx:drawOrder>
					<coordinates>46.42597199536452,40.71591699649057,0</coordinates>
				</Point>
			</Placemark>
			<Placemark>
				<name>Heydər Əliyev prospekti 1-ci bölmənin qaşısı</name>
				<LookAt>
					<longitude>46.35819398562662</longitude>
					<latitude>40.67502798925829</latitude>
					<altitude>0</altitude>
					<heading>-9.368113897641812e-09</heading>
					<tilt>0</tilt>
					<range>999.9999948306508</range>
					<gx:altitudeMode>relativeToSeaFloor</gx:altitudeMode>
				</LookAt>
				<styleUrl>#m_ylw-pushpin</styleUrl>
				<Point>
					<gx:drawOrder>1</gx:drawOrder>
					<coordinates>46.35819398562663,40.6750279892583,0</coordinates>
				</Point>
			</Placemark>
			<Placemark>
				<name>Şex Bahaddin Vaqif küçələrinin kəsişməsi</name>
				<LookAt>
					<longitude>46.36344400768821</longitude>
					<latitude>40.67872200530633</latitude>
					<altitude>0</altitude>
					<heading>5.011320122770092e-09</heading>
					<tilt>0</tilt>
					<range>1000.000045285365</range>
					<gx:altitudeMode>relativeToSeaFloor</gx:altitudeMode>
				</LookAt>
				<styleUrl>#m_ylw-pushpin</styleUrl>
				<Point>
					<gx:drawOrder>1</gx:drawOrder>
					<coordinates>46.36344400768822,40.67872200530633,0</coordinates>
				</Point>
			</Placemark>
			<Placemark>
				<name>Tağı Arani küçəsi MİDA yaşayış kompleksinin yaxınlığı</name>
				<LookAt>
					<longitude>46.37422201226788</longitude>
					<latitude>40.68222200424667</latitude>
					<altitude>0</altitude>
					<heading>7.996967232798844e-09</heading>
					<tilt>0</tilt>
					<range>1000.000032171067</range>
					<gx:altitudeMode>relativeToSeaFloor</gx:altitudeMode>
				</LookAt>
				<styleUrl>#m_ylw-pushpin</styleUrl>
				<Point>
					<gx:drawOrder>1</gx:drawOrder>
					<coordinates>46.37422201226788,40.68222200424667,0</coordinates>
				</Point>
			</Placemark>
			<Placemark>
				<name>Sadıllı qəsəbəsi Bilal Qəramanov Nur marketin yaxınlığı</name>
				<LookAt>
					<longitude>46.35436100468822</longitude>
					<latitude>40.70836099922135</latitude>
					<altitude>0</altitude>
					<heading>3.057705756891988e-09</heading>
					<tilt>0</tilt>
					<range>999.9999967555872</range>
					<gx:altitudeMode>relativeToSeaFloor</gx:altitudeMode>
				</LookAt>
				<styleUrl>#m_ylw-pushpin</styleUrl>
				<Point>
					<gx:drawOrder>1</gx:drawOrder>
					<coordinates>46.35436100468822,40.70836099922135,0</coordinates>
				</Point>
			</Placemark>
			<Placemark>
				<name>Vəli Xuluflu küçəsi Kimyaçılar küçəsi kəsişməsi yaxınlığı</name>
				<LookAt>
					<longitude>46.38755600138639</longitude>
					<latitude>40.69480599957183</latitude>
					<altitude>0</altitude>
					<heading>9.039740710108792e-10</heading>
					<tilt>0</tilt>
					<range>1000.0000138846</range>
					<gx:altitudeMode>relativeToSeaFloor</gx:altitudeMode>
				</LookAt>
				<styleUrl>#m_ylw-pushpin</styleUrl>
				<Point>
					<gx:drawOrder>1</gx:drawOrder>
					<coordinates>46.38755600138639,40.69480599957184,0</coordinates>
				</Point>
			</Placemark>
			<Placemark>
				<name>Dubay Bazarı 2-ci giriş</name>
				<LookAt>
					<longitude>46.39391700832681</longitude>
					<latitude>40.69333303455517</latitude>
					<altitude>0</altitude>
					<heading>5.429120966281824e-09</heading>
					<tilt>0</tilt>
					<range>1000.00008685658</range>
					<gx:altitudeMode>relativeToSeaFloor</gx:altitudeMode>
				</LookAt>
				<styleUrl>#m_ylw-pushpin</styleUrl>
				<Point>
					<gx:drawOrder>1</gx:drawOrder>
					<coordinates>46.39391700832681,40.69333303455517,0</coordinates>
				</Point>
			</Placemark>
			<Placemark>
				<name>Dəmiryol Vağzalı Platforma</name>
				<LookAt>
					<longitude>46.3673890140181</longitude>
					<latitude>40.71427799478775</latitude>
					<altitude>0</altitude>
					<heading>9.143821181505004e-09</heading>
					<tilt>0</tilt>
					<range>999.9999904418215</range>
					<gx:altitudeMode>relativeToSeaFloor</gx:altitudeMode>
				</LookAt>
				<styleUrl>#m_ylw-pushpin</styleUrl>
				<Point>
					<gx:drawOrder>1</gx:drawOrder>
					<coordinates>46.3673890140181,40.71427799478775,0</coordinates>
				</Point>
			</Placemark>
			<Placemark>
				<name>Gəncə Dəmiryol Vağzalı dayanacaq</name>
				<LookAt>
					<longitude>46.36591699461636</longitude>
					<latitude>40.71411097025249</latitude>
					<altitude>0</altitude>
					<heading>-3.511682229350683e-09</heading>
					<tilt>0</tilt>
					<range>999.9999876098606</range>
					<gx:altitudeMode>relativeToSeaFloor</gx:altitudeMode>
				</LookAt>
				<styleUrl>#m_ylw-pushpin</styleUrl>
				<Point>
					<gx:drawOrder>1</gx:drawOrder>
					<coordinates>46.36591699461635,40.71411097025249,0</coordinates>
				</Point>
			</Placemark>
			<Placemark>
				<name>Bursa küçəsi, 109 saylı məktəbin qarşısı</name>
				<LookAt>
					<longitude>46.36672202299619</longitude>
					<latitude>40.65052900142806</latitude>
					<altitude>0</altitude>
					<heading>1.498070198016918e-08</heading>
					<tilt>0</tilt>
					<range>1000.000017053037</range>
					<gx:altitudeMode>relativeToSeaFloor</gx:altitudeMode>
				</LookAt>
				<styleUrl>#m_ylw-pushpin</styleUrl>
				<Point>
					<gx:drawOrder>1</gx:drawOrder>
					<coordinates>46.36672202299619,40.65052900142807,0</coordinates>
				</Point>
			</Placemark>
			<Placemark>
				<name>Samux yolu, 3 saylı məktəbin yaxınlığı 4 yol</name>
				<LookAt>
					<longitude>46.38047201642613</longitude>
					<latitude>40.72047200858599</latitude>
					<altitude>0</altitude>
					<heading>1.071591211056816e-08</heading>
					<tilt>0</tilt>
					<range>1000.000047922733</range>
					<gx:altitudeMode>relativeToSeaFloor</gx:altitudeMode>
				</LookAt>
				<styleUrl>#m_ylw-pushpin</styleUrl>
				<Point>
					<gx:drawOrder>1</gx:drawOrder>
					<coordinates>46.38047201642613,40.72047200858599,0</coordinates>
				</Point>
			</Placemark>
			<Placemark>
				<name>Dədə Qorqud prospekti, 39 saylı məktəb və Uşaq xəstəxanasının qarşısı </name>
				<LookAt>
					<longitude>46.38541701285492</longitude>
					<latitude>40.68486101802908</latitude>
					<altitude>0</altitude>
					<heading>8.380084127509215e-09</heading>
					<tilt>0</tilt>
					<range>1000.000045804749</range>
					<gx:altitudeMode>relativeToSeaFloor</gx:altitudeMode>
				</LookAt>
				<styleUrl>#m_ylw-pushpin</styleUrl>
				<Point>
					<gx:drawOrder>1</gx:drawOrder>
					<coordinates>46.38541701285493,40.68486101802908,0</coordinates>
				</Point>
			</Placemark>
			<Placemark>
				<name>Adilxan Ziyadxan küçəsi, 29 saylı məktəbin qarşısı</name>
				<LookAt>
					<longitude>46.35699998289304</longitude>
					<latitude>40.69336099726157</latitude>
					<altitude>0</altitude>
					<heading>-1.11539221985259e-08</heading>
					<tilt>0</tilt>
					<range>999.9999853799695</range>
					<gx:altitudeMode>relativeToSeaFloor</gx:altitudeMode>
				</LookAt>
				<styleUrl>#m_ylw-pushpin</styleUrl>
				<Point>
					<gx:drawOrder>1</gx:drawOrder>
					<coordinates>46.35699998289304,40.69336099726157,0</coordinates>
				</Point>
			</Placemark>
			<Placemark>
				<name>Adilxan Ziyadxan küçəsi, 18 saylı məktəbin qarşısı</name>
				<LookAt>
					<longitude>46.36369401051305</longitude>
					<latitude>40.69411100480224</latitude>
					<altitude>0</altitude>
					<heading>6.854718727271442e-09</heading>
					<tilt>0</tilt>
					<range>1000.000012306686</range>
					<gx:altitudeMode>relativeToSeaFloor</gx:altitudeMode>
				</LookAt>
				<styleUrl>#m_ylw-pushpin</styleUrl>
				<Point>
					<gx:drawOrder>1</gx:drawOrder>
					<coordinates>46.36369401051306,40.69411100480223,0</coordinates>
				</Point>
			</Placemark>
			<Placemark>
				<name>Fərhad Əliyev küçəsi 43 saylı məktəbin qarşısı</name>
				<LookAt>
					<longitude>46.37288899737571</longitude>
					<latitude>40.68711100295739</latitude>
					<altitude>0</altitude>
					<heading>-1.710861710370085e-09</heading>
					<tilt>0</tilt>
					<range>1000.000003278498</range>
					<gx:altitudeMode>relativeToSeaFloor</gx:altitudeMode>
				</LookAt>
				<styleUrl>#m_ylw-pushpin</styleUrl>
				<Point>
					<gx:drawOrder>1</gx:drawOrder>
					<coordinates>46.37288899737571,40.68711100295739,0</coordinates>
				</Point>
			</Placemark>
			<Placemark>
				<name>Gəncə Dövlət Universitetinin nəzdində Reqional Kollecin qarşısı</name>
				<LookAt>
					<longitude>46.34019400097088</longitude>
					<latitude>40.68466700510622</latitude>
					<altitude>0</altitude>
					<heading>6.32892214955062e-10</heading>
					<tilt>0</tilt>
					<range>1000.000016187966</range>
					<gx:altitudeMode>relativeToSeaFloor</gx:altitudeMode>
				</LookAt>
				<styleUrl>#m_ylw-pushpin</styleUrl>
				<Point>
					<gx:drawOrder>1</gx:drawOrder>
					<coordinates>46.34019400097088,40.68466700510622,0</coordinates>
				</Point>
			</Placemark>
			<Placemark>
				<name>Cəfər Cabbarlı kküçəsi 22 saylı orta məktəbin qarşısı</name>
				<LookAt>
					<longitude>46.34641700775101</longitude>
					<latitude>40.67788899051714</latitude>
					<altitude>0</altitude>
					<heading>5.052148903216042e-09</heading>
					<tilt>0</tilt>
					<range>1000.000013138768</range>
					<gx:altitudeMode>relativeToSeaFloor</gx:altitudeMode>
				</LookAt>
				<styleUrl>#m_ylw-pushpin</styleUrl>
				<Point>
					<gx:drawOrder>1</gx:drawOrder>
					<coordinates>46.34641700775101,40.67788899051714,0</coordinates>
				</Point>
			</Placemark>
			<Placemark>
				<name>Cavad Rəfibəyli küçəsi Gəncə Dövlət Universiteti 5-ci və 6-cı korpusun qarşısı</name>
				<LookAt>
					<longitude>46.33911099698906</longitude>
					<latitude>40.66730599245117</latitude>
					<altitude>0</altitude>
					<heading>-1.962147794088473e-09</heading>
					<tilt>0</tilt>
					<range>1000.000017175963</range>
					<gx:altitudeMode>relativeToSeaFloor</gx:altitudeMode>
				</LookAt>
				<styleUrl>#m_ylw-pushpin</styleUrl>
				<Point>
					<gx:drawOrder>1</gx:drawOrder>
					<coordinates>46.33911099698906,40.66730599245117,0</coordinates>
				</Point>
			</Placemark>
			<Placemark>
				<name>Pərviz Səmədov 4 saylı xarici məktəb liseyi</name>
				<LookAt>
					<longitude>46.3522500362976</longitude>
					<latitude>40.68136101988544</latitude>
					<altitude>0</altitude>
					<heading>2.366064880304677e-08</heading>
					<tilt>0</tilt>
					<range>1000.000077008994</range>
					<gx:altitudeMode>relativeToSeaFloor</gx:altitudeMode>
				</LookAt>
				<styleUrl>#m_ylw-pushpin</styleUrl>
				<Point>
					<gx:drawOrder>1</gx:drawOrder>
					<coordinates>46.35225003629759,40.68136101988544,0</coordinates>
				</Point>
			</Placemark>
			<Placemark>
				<name>MİDA 28 saylı məktəbin qarşısı</name>
				<LookAt>
					<longitude>46.37658302040665</longitude>
					<latitude>40.6810280151668</latitude>
					<altitude>0</altitude>
					<heading>1.330202112206614e-08</heading>
					<tilt>0</tilt>
					<range>1000.000066295146</range>
					<gx:altitudeMode>relativeToSeaFloor</gx:altitudeMode>
				</LookAt>
				<styleUrl>#m_ylw-pushpin</styleUrl>
				<Point>
					<gx:drawOrder>1</gx:drawOrder>
					<coordinates>46.37658302040666,40.6810280151668,0</coordinates>
				</Point>
			</Placemark>
			<Placemark>
				<name>Elxan Orucov küçəsi Gəncə Dövlət Universiteti 2 ci korpusun qarşısı</name>
				<LookAt>
					<longitude>46.36938898041549</longitude>
					<latitude>40.677666996355</latitude>
					<altitude>0</altitude>
					<heading>-1.276525799180363e-08</heading>
					<tilt>0</tilt>
					<range>1000.000080918077</range>
					<gx:altitudeMode>relativeToSeaFloor</gx:altitudeMode>
				</LookAt>
				<styleUrl>#m_ylw-pushpin</styleUrl>
				<Point>
					<gx:drawOrder>1</gx:drawOrder>
					<coordinates>46.36938898041549,40.677666996355,0</coordinates>
				</Point>
			</Placemark>
			<Placemark>
				<name>Nərimanov Nərimanov prospekti 10 saylı məktəbin qarşısı</name>
				<LookAt>
					<longitude>46.36647200292874</longitude>
					<latitude>40.67136098011287</latitude>
					<altitude>0</altitude>
					<heading>1.908704933775841e-09</heading>
					<tilt>0</tilt>
					<range>999.9999323175696</range>
					<gx:altitudeMode>relativeToSeaFloor</gx:altitudeMode>
				</LookAt>
				<styleUrl>#m_ylw-pushpin</styleUrl>
				<Point>
					<gx:drawOrder>1</gx:drawOrder>
					<coordinates>46.36647200292874,40.67136098011287,0</coordinates>
				</Point>
			</Placemark>
			<Placemark>
				<name>Ozan küçəsi 23 saylı orta məktəbin qarşısı</name>
				<LookAt>
					<longitude>46.34502797471917</longitude>
					<latitude>40.6665280085755</latitude>
					<altitude>0</altitude>
					<heading>-1.647438587522489e-08</heading>
					<tilt>0</tilt>
					<range>999.9999478269514</range>
					<gx:altitudeMode>relativeToSeaFloor</gx:altitudeMode>
				</LookAt>
				<styleUrl>#m_ylw-pushpin</styleUrl>
				<Point>
					<gx:drawOrder>1</gx:drawOrder>
					<coordinates>46.34502797471918,40.6665280085755,0</coordinates>
				</Point>
			</Placemark>
			<Placemark>
				<name>Bağbanlar küçəsi İnternat tipli xarici dillər təmayüllü gimnaziyanın qarşısı</name>
				<LookAt>
					<longitude>46.33516700903697</longitude>
					<latitude>40.66172199540177</latitude>
					<altitude>0</altitude>
					<heading>5.888396242839836e-09</heading>
					<tilt>0</tilt>
					<range>1000.000018741015</range>
					<gx:altitudeMode>relativeToSeaFloor</gx:altitudeMode>
				</LookAt>
				<styleUrl>#m_ylw-pushpin</styleUrl>
				<Point>
					<gx:drawOrder>1</gx:drawOrder>
					<coordinates>46.33516700903697,40.66172199540176,0</coordinates>
				</Point>
			</Placemark>
			<Placemark>
				<name>Bağbanlar küçəsi 8 saylı məktəbin qarşısı</name>
				<LookAt>
					<longitude>46.32566700800137</longitude>
					<latitude>40.6625560007511</latitude>
					<altitude>0</altitude>
					<heading>5.213701997706298e-09</heading>
					<tilt>0</tilt>
					<range>1000.00000873394</range>
					<gx:altitudeMode>relativeToSeaFloor</gx:altitudeMode>
				</LookAt>
				<styleUrl>#m_ylw-pushpin</styleUrl>
				<Point>
					<gx:drawOrder>1</gx:drawOrder>
					<coordinates>46.32566700800138,40.6625560007511,0</coordinates>
				</Point>
			</Placemark>
			<Placemark>
				<name>Nizami Gəncəvi Səməd Vurğun adına 41 saylı məktəbin qarşısı</name>
				<LookAt>
					<longitude>46.34583299801272</longitude>
					<latitude>40.68591700113434</latitude>
					<altitude>0</altitude>
					<heading>-1.295535338400534e-09</heading>
					<tilt>0</tilt>
					<range>999.9999831303421</range>
					<gx:altitudeMode>relativeToSeaFloor</gx:altitudeMode>
				</LookAt>
				<styleUrl>#m_ylw-pushpin</styleUrl>
				<Point>
					<gx:drawOrder>1</gx:drawOrder>
					<coordinates>46.34583299801272,40.68591700113434,0</coordinates>
				</Point>
			</Placemark>
			<Placemark>
				<name>Mirzə Abbas Abbaszadə küçəsi Azərbayca Dövlət Aqrar Universiteti</name>
				<LookAt>
					<longitude>46.36216700967987</longitude>
					<latitude>40.67041699839889</latitude>
					<altitude>0</altitude>
					<heading>6.308420294073909e-09</heading>
					<tilt>0</tilt>
					<range>999.9999688263282</range>
					<gx:altitudeMode>relativeToSeaFloor</gx:altitudeMode>
				</LookAt>
				<styleUrl>#m_ylw-pushpin</styleUrl>
				<Point>
					<gx:drawOrder>1</gx:drawOrder>
					<coordinates>46.36216700967987,40.67041699839888,0</coordinates>
				</Point>
			</Placemark>
			<Placemark>
				<name>Üzeyir Hacıbəyov küçəsi 34 saylı məktəbin qarşısı</name>
				<LookAt>
					<longitude>46.37041699895695</longitude>
					<latitude>40.69094398187739</latitude>
					<altitude>0</altitude>
					<heading>-6.800598408811662e-10</heading>
					<tilt>0</tilt>
					<range>1000.000001577088</range>
					<gx:altitudeMode>relativeToSeaFloor</gx:altitudeMode>
				</LookAt>
				<styleUrl>#m_ylw-pushpin</styleUrl>
				<Point>
					<gx:drawOrder>1</gx:drawOrder>
					<coordinates>46.37041699895695,40.6909439818774,0</coordinates>
				</Point>
			</Placemark>
			<Placemark>
				<name>Azərbaycan Dövlət Aqrar Universitetinin İqtisadiyyat korpusu</name>
				<LookAt>
					<longitude>46.36430600185166</longitude>
					<latitude>40.67127799936126</latitude>
					<altitude>0</altitude>
					<heading>1.206766057240888e-09</heading>
					<tilt>0</tilt>
					<range>1000.000015765633</range>
					<gx:altitudeMode>relativeToSeaFloor</gx:altitudeMode>
				</LookAt>
				<styleUrl>#m_ylw-pushpin</styleUrl>
				<Point>
					<gx:drawOrder>1</gx:drawOrder>
					<coordinates>46.36430600185166,40.67127799936127,0</coordinates>
				</Point>
			</Placemark>
			<Placemark>
				<name>M. Xələfov küçəsi 27 saylı peşə liseyinin yaxınlığı</name>
				<LookAt>
					<longitude>46.38505600456925</longitude>
					<latitude>40.6987220016951</latitude>
					<altitude>0</altitude>
					<heading>2.979486375610757e-09</heading>
					<tilt>0</tilt>
					<range>1000.000036758831</range>
					<gx:altitudeMode>relativeToSeaFloor</gx:altitudeMode>
				</LookAt>
				<styleUrl>#m_ylw-pushpin</styleUrl>
				<Point>
					<gx:drawOrder>1</gx:drawOrder>
					<coordinates>46.38505600456924,40.6987220016951,0</coordinates>
				</Point>
			</Placemark>
		</Folder>
		<atom:link rel="app" href="https://www.google.com/earth/about/versions/#earth-pro" title="Google Earth Pro 7.3.7.1155"></atom:link>
	</Folder>
</Document>
</kml>
